FENGYUN 1C DEB          
1 30233U 99025WS  17345.67265781  .00001845  00000-0  50959-3 0  9997
2 30233  99.0458 207.7316 0056387 278.7886  80.6922 14.47171955570305
